{
  "links" : {
    "next" : "https://api.nasa.gov/neo/rest/v1/feed?start_date=2007-11-16&end_date=2007-11-16&detailed=true&api_key=t0TVs3DtDT2H8Oy2Zy8m2eVrNsAVKAexjcZXUckd",
    "prev" : "https://api.nasa.gov/neo/rest/v1/feed?start_date=2007-11-14&end_date=2007-11-14&detailed=true&api_key=t0TVs3DtDT2H8Oy2Zy8m2eVrNsAVKAexjcZXUckd",
    "self" : "https://api.nasa.gov/neo/rest/v1/feed?start_date=2007-11-15&end_date=2007-11-15&detailed=true&api_key=t0TVs3DtDT2H8Oy2Zy8m2eVrNsAVKAexjcZXUckd"
  },
  "element_count" : 10,
  "near_earth_objects" : {
    "2007-11-15" : [ {
      "links" : {
        "self" : "https://api.nasa.gov/neo/rest/v1/neo/3520758?api_key=t0TVs3DtDT2H8Oy2Zy8m2eVrNsAVKAexjcZXUckd"
      },
      "neo_reference_id" : "3520758",
      "name" : "(2010 HX107)",
      "nasa_jpl_url" : "http://ssd.jpl.nasa.gov/sbdb.cgi?sstr=3520758",
      "absolute_magnitude_h" : 23.6,
      "estimated_diameter" : {
        "kilometers" : {
          "estimated_diameter_min" : 0.0506471459,
          "estimated_diameter_max" : 0.1132504611
        },
        "meters" : {
          "estimated_diameter_min" : 50.6471458835,
          "estimated_diameter_max" : 113.2504610618
        },
        "miles" : {
          "estimated_diameter_min" : 0.0314706677,
          "estimated_diameter_max" : 0.0703705522
        },
        "feet" : {
          "estimated_diameter_min" : 166.1651821003,
          "estimated_diameter_max" : 371.5566426699
        }
      },
      "is_potentially_hazardous_asteroid" : false,
      "close_approach_data" : [ {
        "close_approach_date" : "2007-11-15",
        "epoch_date_close_approach" : 1195113600000,
        "relative_velocity" : {
          "kilometers_per_second" : "15.356028722",
          "kilometers_per_hour" : "55281.7033993426",
          "miles_per_hour" : "34349.9006483304"
        },
        "miss_distance" : {
          "astronomical" : "0.4286235645",
          "lunar" : "166.7345581055",
          "kilometers" : "64121172",
          "miles" : "39843048"
        },
        "orbiting_body" : "Earth"
      } ],
      "orbital_data" : {
        "orbit_id" : "13",
        "orbit_determination_date" : "2017-04-06 08:57:40",
        "orbit_uncertainty" : "1",
        "minimum_orbit_intersection" : ".0135841",
        "jupiter_tisserand_invariant" : "7.245",
        "epoch_osculation" : "2458000.5",
        "eccentricity" : ".3005049778688926",
        "semi_major_axis" : ".8008085288113501",
        "inclination" : "3.365302320868675",
        "ascending_node_longitude" : "51.60300056349139",
        "orbital_period" : "261.7528756743129",
        "perihelion_distance" : ".5601615795836749",
        "perihelion_argument" : "353.020096352595",
        "aphelion_distance" : "1.041455478039025",
        "perihelion_time" : "2458078.556294495415",
        "mean_anomaly" : "252.6458173727455",
        "mean_motion" : "1.375343056203637",
        "equinox" : "J2000"
      }
    }, {
      "links" : {
        "self" : "https://api.nasa.gov/neo/rest/v1/neo/3605565?api_key=t0TVs3DtDT2H8Oy2Zy8m2eVrNsAVKAexjcZXUckd"
      },
      "neo_reference_id" : "3605565",
      "name" : "(2012 LD1)",
      "nasa_jpl_url" : "http://ssd.jpl.nasa.gov/sbdb.cgi?sstr=3605565",
      "absolute_magnitude_h" : 21.8,
      "estimated_diameter" : {
        "kilometers" : {
          "estimated_diameter_min" : 0.1160259082,
          "estimated_diameter_max" : 0.2594418179
        },
        "meters" : {
          "estimated_diameter_min" : 116.0259082094,
          "estimated_diameter_max" : 259.4418179074
        },
        "miles" : {
          "estimated_diameter_min" : 0.0720951346,
          "estimated_diameter_max" : 0.1612096218
        },
        "feet" : {
          "estimated_diameter_min" : 380.6624406898,
          "estimated_diameter_max" : 851.1870938635
        }
      },
      "is_potentially_hazardous_asteroid" : false,
      "close_approach_data" : [ {
        "close_approach_date" : "2007-11-15",
        "epoch_date_close_approach" : 1195113600000,
        "relative_velocity" : {
          "kilometers_per_second" : "8.7112249561",
          "kilometers_per_hour" : "31360.4098420612",
          "miles_per_hour" : "19486.139104363"
        },
        "miss_distance" : {
          "astronomical" : "0.3248255195",
          "lunar" : "126.357131958",
          "kilometers" : "48593208",
          "miles" : "30194420"
        },
        "orbiting_body" : "Earth"
      } ],
      "orbital_data" : {
        "orbit_id" : "23",
        "orbit_determination_date" : "2017-04-06 08:49:38",
        "orbit_uncertainty" : "2",
        "minimum_orbit_intersection" : ".0848699",
        "jupiter_tisserand_invariant" : "5.292",
        "epoch_osculation" : "2458000.5",
        "eccentricity" : ".1176042481012951",
        "semi_major_axis" : "1.1889502422664",
        "inclination" : "15.23965697871666",
        "ascending_node_longitude" : "246.1373132972053",
        "orbital_period" : "473.5261270689481",
        "perihelion_distance" : "1.049124642994807",
        "perihelion_argument" : "303.2352334456799",
        "aphelion_distance" : "1.328775841537992",
        "perihelion_time" : "2457908.797585617890",
        "mean_anomaly" : "69.7171017403071",
        "mean_motion" : ".7602537207996169",
        "equinox" : "J2000"
      }
    }, {
      "links" : {
        "self" : "https://api.nasa.gov/neo/rest/v1/neo/3721164?api_key=t0TVs3DtDT2H8Oy2Zy8m2eVrNsAVKAexjcZXUckd"
      },
      "neo_reference_id" : "3721164",
      "name" : "(2015 LR21)",
      "nasa_jpl_url" : "http://ssd.jpl.nasa.gov/sbdb.cgi?sstr=3721164",
      "absolute_magnitude_h" : 26.5,
      "estimated_diameter" : {
        "kilometers" : {
          "estimated_diameter_min" : 0.0133215567,
          "estimated_diameter_max" : 0.0297879063
        },
        "meters" : {
          "estimated_diameter_min" : 13.3215566698,
          "estimated_diameter_max" : 29.7879062798
        },
        "miles" : {
          "estimated_diameter_min" : 0.008277629,
          "estimated_diameter_max" : 0.0185093411
        },
        "feet" : {
          "estimated_diameter_min" : 43.7058959846,
          "estimated_diameter_max" : 97.7293544391
        }
      },
      "is_potentially_hazardous_asteroid" : false,
      "close_approach_data" : [ {
        "close_approach_date" : "2007-11-15",
        "epoch_date_close_approach" : 1195113600000,
        "relative_velocity" : {
          "kilometers_per_second" : "25.3909675348",
          "kilometers_per_hour" : "91407.4831253995",
          "miles_per_hour" : "56797.0552786684"
        },
        "miss_distance" : {
          "astronomical" : "0.3857055017",
          "lunar" : "150.0394439697",
          "kilometers" : "57700724",
          "miles" : "35853568"
        },
        "orbiting_body" : "Earth"
      } ],
      "orbital_data" : {
        "orbit_id" : "17",
        "orbit_determination_date" : "2017-04-14 06:13:06",
        "orbit_uncertainty" : "4",
        "minimum_orbit_intersection" : ".0010832",
        "jupiter_tisserand_invariant" : "3.723",
        "epoch_osculation" : "2458000.5",
        "eccentricity" : ".5686584148545474",
        "semi_major_axis" : "1.908086667132264",
        "inclination" : "1.889263124059593",
        "ascending_node_longitude" : "86.33599983049332",
        "orbital_period" : "962.7101977294782",
        "perihelion_distance" : ".8230371275957342",
        "perihelion_argument" : "243.3766867379067",
        "aphelion_distance" : "2.993136206668793",
        "perihelion_time" : "2458199.223994047447",
        "mean_anomaly" : "285.6882932934469",
        "mean_motion" : ".3739443093560749",
        "equinox" : "J2000"
      }
    } ]
  }
}